<?xml version="1.0" encoding="UTF-8"?>
<kml xmlns="http://www.opengis.net/kml/2.2">
  <Document>
    <name>Copy of Kayaking Saturna Island</name>
    <description><![CDATA[A kayak circumnavigation of Saturna Island in BC's Gulf Islands]]></description>
    <Style id="icon-1899-0288D1-labelson-nodesc">
      <IconStyle>
        <scale>1</scale>
        <Icon>
          <href>images/icon-1.png</href>
        </Icon>
        <hotSpot x="32" xunits="pixels" y="64" yunits="insetPixels"/>
      </IconStyle>
      <BalloonStyle>
        <text><![CDATA[<h3>$[name]</h3>]]></text>
      </BalloonStyle>
    </Style>
    <Style id="icon-ci-2-nodesc-normal">
      <IconStyle>
        <scale>0.7</scale>
        <Icon>
          <href>images/icon-2.png</href>
        </Icon>
      </IconStyle>
      <LabelStyle>
        <scale>0</scale>
      </LabelStyle>
      <BalloonStyle>
        <text><![CDATA[<h3>$[name]</h3>]]></text>
      </BalloonStyle>
    </Style>
    <Style id="icon-ci-2-nodesc-highlight">
      <IconStyle>
        <scale>0.7</scale>
        <Icon>
          <href>images/icon-2.png</href>
        </Icon>
      </IconStyle>
      <LabelStyle>
        <scale>0.7</scale>
      </LabelStyle>
      <BalloonStyle>
        <text><![CDATA[<h3>$[name]</h3>]]></text>
      </BalloonStyle>
    </Style>
    <StyleMap id="icon-ci-2-nodesc">
      <Pair>
        <key>normal</key>
        <styleUrl>#icon-ci-2-nodesc-normal</styleUrl>
      </Pair>
      <Pair>
        <key>highlight</key>
        <styleUrl>#icon-ci-2-nodesc-highlight</styleUrl>
      </Pair>
    </StyleMap>
    <Style id="icon-ci-3-nodesc-normal">
      <IconStyle>
        <scale>0.7</scale>
        <Icon>
          <href>images/icon-3.png</href>
        </Icon>
      </IconStyle>
      <LabelStyle>
        <scale>0</scale>
      </LabelStyle>
      <BalloonStyle>
        <text><![CDATA[<h3>$[name]</h3>]]></text>
      </BalloonStyle>
    </Style>
    <Style id="icon-ci-3-nodesc-highlight">
      <IconStyle>
        <scale>0.7</scale>
        <Icon>
          <href>images/icon-3.png</href>
        </Icon>
      </IconStyle>
      <LabelStyle>
        <scale>0.7</scale>
      </LabelStyle>
      <BalloonStyle>
        <text><![CDATA[<h3>$[name]</h3>]]></text>
      </BalloonStyle>
    </Style>
    <StyleMap id="icon-ci-3-nodesc">
      <Pair>
        <key>normal</key>
        <styleUrl>#icon-ci-3-nodesc-normal</styleUrl>
      </Pair>
      <Pair>
        <key>highlight</key>
        <styleUrl>#icon-ci-3-nodesc-highlight</styleUrl>
      </Pair>
    </StyleMap>
    <Style id="line-000000-1200-nodesc-normal">
      <LineStyle>
        <color>ff000000</color>
        <width>1.2</width>
      </LineStyle>
      <BalloonStyle>
        <text><![CDATA[<h3>$[name]</h3>]]></text>
      </BalloonStyle>
    </Style>
    <Style id="line-000000-1200-nodesc-highlight">
      <LineStyle>
        <color>ff000000</color>
        <width>1.8</width>
      </LineStyle>
      <BalloonStyle>
        <text><![CDATA[<h3>$[name]</h3>]]></text>
      </BalloonStyle>
    </Style>
    <StyleMap id="line-000000-1200-nodesc">
      <Pair>
        <key>normal</key>
        <styleUrl>#line-000000-1200-nodesc-normal</styleUrl>
      </Pair>
      <Pair>
        <key>highlight</key>
        <styleUrl>#line-000000-1200-nodesc-highlight</styleUrl>
      </Pair>
    </StyleMap>
    <Style id="line-1267FF-5000-nodesc-normal">
      <LineStyle>
        <color>ffff6712</color>
        <width>5</width>
      </LineStyle>
      <BalloonStyle>
        <text><![CDATA[<h3>$[name]</h3>]]></text>
      </BalloonStyle>
    </Style>
    <Style id="line-1267FF-5000-nodesc-highlight">
      <LineStyle>
        <color>ffff6712</color>
        <width>7.5</width>
      </LineStyle>
      <BalloonStyle>
        <text><![CDATA[<h3>$[name]</h3>]]></text>
      </BalloonStyle>
    </Style>
    <StyleMap id="line-1267FF-5000-nodesc">
      <Pair>
        <key>normal</key>
        <styleUrl>#line-1267FF-5000-nodesc-normal</styleUrl>
      </Pair>
      <Pair>
        <key>highlight</key>
        <styleUrl>#line-1267FF-5000-nodesc-highlight</styleUrl>
      </Pair>
    </StyleMap>
    <Folder>
      <name>Untitled layer</name>
      <Placemark>
        <name>Lyall Harbour to Cabbage Island
</name>
        <styleUrl>#line-000000-1200-nodesc</styleUrl>
        <LineString>
          <tessellate>1</tessellate>
          <coordinates>
            -123.2000141,48.7978953,0
            -123.2067089,48.8055274,0
            -123.2281666,48.8212401,0
            -123.2328014,48.8245177,0
            -123.2370929,48.8259869,0
            -123.2453327,48.8295467,0
            -123.2437877,48.8339537,0
            -123.2388096,48.8367785,0
            -123.229969,48.8404504,0
            -123.2128029,48.8388122,0
            -123.2010441,48.8320327,0
            -123.1932335,48.827569,0
            -123.1837063,48.8230485,0
            -123.1029396,48.7981214,0
            -123.0988197,48.7991391,0
            -123.0874042,48.7980084,0
          </coordinates>
        </LineString>
      </Placemark>
      <Placemark>
        <name>Cabbage Island to East Point
</name>
        <styleUrl>#line-000000-1200-nodesc</styleUrl>
        <LineString>
          <tessellate>1</tessellate>
          <coordinates>
            -123.0874042,48.7980084,0
            -123.0881159,48.7970636,0
            -123.0809919,48.795537,0
            -123.0722372,48.7954805,0
            -123.0770437,48.7948586,0
            -123.0832235,48.795424,0
            -123.0892317,48.7964417,0
            -123.0995314,48.7984771,0
            -123.1021063,48.7987032,0
            -123.1024496,48.7974029,0
            -123.0979006,48.7953109,0
            -123.0816786,48.7921445,0
            -123.0659716,48.7892606,0
            -123.0615942,48.7890344,0
            -123.0589335,48.7893737,0
            -123.0466597,48.7842276,0
          </coordinates>
        </LineString>
      </Placemark>
      <Placemark>
        <name>East Point to Narvaez Campsite
</name>
        <styleUrl>#line-000000-1200-nodesc</styleUrl>
        <LineString>
          <tessellate>1</tessellate>
          <coordinates>
            -123.0466597,48.7842276,0
            -123.0469177,48.7860657,0
            -123.0450294,48.7866877,0
            -123.0436561,48.7856698,0
            -123.0438278,48.7838601,0
            -123.044257,48.782729,0
            -123.0461452,48.7814282,0
            -123.0504368,48.7800143,0
            -123.0601356,48.7789397,0
            -123.0701778,48.7789397,0
            -123.076701,48.7792225,0
            -123.0835674,48.7771863,0
            -123.090863,48.7766207,0
            -123.097472,48.7758854,0
            -123.0989311,48.7743581,0
          </coordinates>
        </LineString>
      </Placemark>
      <Placemark>
        <name>Boiling Reef
</name>
        <styleUrl>#icon-1899-0288D1-labelson-nodesc</styleUrl>
        <Point>
          <coordinates>
            -123.0412204,48.7887128,0
          </coordinates>
        </Point>
      </Placemark>
      <Placemark>
        <name>Narvaez Campground to Thompson Park
</name>
        <styleUrl>#line-000000-1200-nodesc</styleUrl>
        <LineString>
          <tessellate>1</tessellate>
          <coordinates>
            -123.0989311,48.7743581,0
            -123.0975061,48.7750369,0
            -123.0910688,48.7730571,0
            -123.0893522,48.7722652,0
            -123.088408,48.7703418,0
            -123.0881505,48.7685316,0
            -123.0898671,48.7665516,0
            -123.0914121,48.7649675,0
            -123.0921846,48.7642886,0
            -123.0946737,48.7636662,0
            -123.1217962,48.7655898,0
            -123.1298642,48.7633834,0
            -123.1327825,48.762365,0
            -123.1408506,48.762365,0
            -123.1603341,48.7628176,0
            -123.1792169,48.7667779,0
            -123.1875425,48.770059,0
            -123.1997304,48.7728874,0
            -123.2030778,48.774245,0
            -123.2035928,48.7765075,0
            -123.2005887,48.7773559,0
          </coordinates>
        </LineString>
      </Placemark>
      <Placemark>
        <name>Thompson Park to Lyall Harbour
</name>
        <styleUrl>#line-000000-1200-nodesc</styleUrl>
        <LineString>
          <tessellate>1</tessellate>
          <coordinates>
            -123.2005887,48.7773559,0
            -123.2035395,48.778873,0
            -123.2033678,48.7818705,0
            -123.2084318,48.7837369,0
            -123.2137533,48.7891658,0
            -123.2152125,48.7921627,0
            -123.2140967,48.7951595,0
            -123.2126376,48.7966861,0
            -123.209376,48.796573,0
            -123.2062861,48.7966861,0
            -123.2024237,48.7972515,0
            -123.2012221,48.7982692,0
          </coordinates>
        </LineString>
      </Placemark>
      <Placemark>
        <name>Break</name>
        <styleUrl>#icon-1899-0288D1-labelson-nodesc</styleUrl>
        <Point>
          <coordinates>
            -123.2005887,48.7773559,0
          </coordinates>
        </Point>
      </Placemark>
      <Placemark>
        <name>Cabbage Island 1st Night Camp
</name>
        <styleUrl>#icon-1899-0288D1-labelson-nodesc</styleUrl>
        <Point>
          <coordinates>
            -123.0865013,48.7978175,0
          </coordinates>
        </Point>
      </Placemark>
      <Placemark>
        <name>Narvaez Bay - 2nd Night Camp
</name>
        <styleUrl>#icon-1899-0288D1-labelson-nodesc</styleUrl>
        <Point>
          <coordinates>
            -123.0977451,48.7741055,0
          </coordinates>
        </Point>
      </Placemark>
      <Placemark>
        <name>East Point
</name>
        <styleUrl>#icon-1899-0288D1-labelson-nodesc</styleUrl>
        <Point>
          <coordinates>
            -123.0451708,48.7855968,0
          </coordinates>
        </Point>
      </Placemark>
      <Placemark>
        <name>Belle Chain Islands
</name>
        <styleUrl>#icon-1899-0288D1-labelson-nodesc</styleUrl>
        <Point>
          <coordinates>
            -123.1884703,48.8272435,0
          </coordinates>
        </Point>
      </Placemark>
      <Placemark>
        <name>Lunch Break Day 1
</name>
        <styleUrl>#icon-1899-0288D1-labelson-nodesc</styleUrl>
        <Point>
          <coordinates>
            -123.2368788,48.8258875,0
          </coordinates>
        </Point>
      </Placemark>
      <Placemark>
        <name>Horton Bay
</name>
        <styleUrl>#icon-1899-0288D1-labelson-nodesc</styleUrl>
        <Point>
          <coordinates>
            -123.2468352,48.8280346,0
          </coordinates>
        </Point>
      </Placemark>
      <Placemark>
        <name>Elliot Bluff
</name>
        <styleUrl>#icon-1899-0288D1-labelson-nodesc</styleUrl>
        <Point>
          <coordinates>
            -123.2117994,48.7884591,0
          </coordinates>
        </Point>
      </Placemark>
      <Placemark>
        <name>Brown Ridge
</name>
        <styleUrl>#icon-1899-0288D1-labelson-nodesc</styleUrl>
        <Point>
          <coordinates>
            -123.1631491,48.7734292,0
          </coordinates>
        </Point>
      </Placemark>
      <Placemark>
        <name>Mount Warburton Pike
</name>
        <styleUrl>#icon-1899-0288D1-labelson-nodesc</styleUrl>
        <Point>
          <coordinates>
            -123.1704091,48.7826653,0
          </coordinates>
        </Point>
      </Placemark>
      <Placemark>
        <name>Monarch Head
</name>
        <styleUrl>#icon-1899-0288D1-labelson-nodesc</styleUrl>
        <Point>
          <coordinates>
            -123.0934046,48.7645211,0
          </coordinates>
        </Point>
      </Placemark>
      <Placemark>
        <name>Taylor Point
</name>
        <styleUrl>#icon-1899-0288D1-labelson-nodesc</styleUrl>
        <Point>
          <coordinates>
            -123.1319426,48.7638988,0
          </coordinates>
        </Point>
      </Placemark>
      <Placemark>
        <name>Murder Point
</name>
        <styleUrl>#icon-1899-0288D1-labelson-nodesc</styleUrl>
        <Point>
          <coordinates>
            -123.1535445,48.7634913,0
          </coordinates>
        </Point>
      </Placemark>
      <Placemark>
        <name>Breezy Bay
</name>
        <styleUrl>#icon-1899-0288D1-labelson-nodesc</styleUrl>
        <Point>
          <coordinates>
            -123.2028697,48.7811024,0
          </coordinates>
        </Point>
      </Placemark>
      <Placemark>
        <name>Croker Point
</name>
        <styleUrl>#icon-1899-0288D1-labelson-nodesc</styleUrl>
        <Point>
          <coordinates>
            -123.2020973,48.7753616,0
          </coordinates>
        </Point>
      </Placemark>
      <Placemark>
        <name>Reef Harbour
</name>
        <styleUrl>#icon-1899-0288D1-labelson-nodesc</styleUrl>
        <Point>
          <coordinates>
            -123.0794176,48.796281,0
          </coordinates>
        </Point>
      </Placemark>
    </Folder>
    <Folder>
      <name>Ferry from Swartz Bay to Lyall Harbour on Saturna Island</name>
      <Placemark>
        <name>Ferry from Swartz Bay to Lyall Harbour on Saturna Island</name>
        <styleUrl>#line-1267FF-5000-nodesc</styleUrl>
        <LineString>
          <tessellate>1</tessellate>
          <coordinates>
            -123.20225,48.79891,0
            -123.20392,48.8004,0
            -123.20618,48.80115,0
            -123.21021,48.80155,0
            -123.25754,48.81442,0
            -123.28344,48.81921,0
            -123.32509,48.82659,0
            -123.33176,48.83122,0
            -123.3357,48.83416,0
            -123.33853,48.84071,0
            -123.33707,48.84348,0
            -123.33561,48.84427,0
            -123.33308,48.84491,0
            -123.32902,48.84499,0
            -123.32605,48.84479,0
            -123.32551,48.84476,0
            -123.3246,48.8447,0
            -123.32542,48.84467,0
            -123.32623,48.84465,0
            -123.33408,48.84441,0
            -123.33542,48.84428,0
            -123.33651,48.84376,0
            -123.33825,48.84163,0
            -123.34047,48.83481,0
            -123.34239,48.82107,0
            -123.33723,48.80038,0
            -123.33495,48.77777,0
            -123.33479,48.77655,0
            -123.33464,48.77456,0
            -123.33475,48.77209,0
            -123.33595,48.76903,0
            -123.34102,48.76326,0
            -123.34793,48.75812,0
            -123.34733,48.72685,0
            -123.35647,48.71353,0
            -123.36936,48.69931,0
            -123.39322,48.69098,0
            -123.40474,48.69018,0
            -123.4073,48.68969,0
            -123.40877,48.68922,0
            -123.4091,48.68911,0
            -123.40953,48.68901,0
            -123.41004,48.68888,0
            -123.41023,48.68883,0
            -123.4104,48.68878,0
            -123.41054,48.68874,0
            -123.4106,48.68872,0
            -123.41079,48.68866,0
            -123.41101,48.68858,0
            -123.41102,48.68857,0
            -123.41104,48.68856,0
            -123.41106,48.68853,0
            -123.41108,48.68849,0
            -123.41108,48.68843,0
            -123.41108,48.6884,0
            -123.41107,48.68837,0
            -123.41106,48.6883,0
            -123.41105,48.68822,0
            -123.41101,48.68805,0
            -123.41099,48.68795,0
            -123.41098,48.68791,0
            -123.41097,48.68787,0
            -123.41095,48.68778,0
            -123.41095,48.68777,0
            -123.41093,48.68761,0
            -123.41092,48.68759,0
            -123.41091,48.68751,0
            -123.41089,48.68742,0
            -123.41088,48.68739,0
            -123.41084,48.68724,0
            -123.4108,48.68719,0
            -123.41077,48.68717,0
            -123.41072,48.68715,0
            -123.41068,48.68714,0
            -123.41064,48.68713,0
            -123.41059,48.68677,0
            -123.41054,48.68641,0
            -123.41051,48.68618,0
            -123.41049,48.68603,0
            -123.41048,48.68571,0
            -123.4105,48.68546,0
            -123.41051,48.68536,0
            -123.41053,48.68531,0
            -123.41055,48.68525,0
            -123.41064,48.6851,0
            -123.41071,48.68499,0
            -123.41075,48.68494,0
            -123.41083,48.68486,0
            -123.41094,48.68475,0
            -123.4114,48.68445,0
            -123.41159,48.68432,0
            -123.41178,48.68419,0
            -123.41217,48.68394,0
            -123.41274,48.68356,0
            -123.41325,48.68325,0
            -123.41365,48.68301,0
            -123.41366,48.683,0
            -123.41421,48.68264,0
            -123.41471,48.6823,0
            -123.41521,48.682,0
            -123.41534,48.68192,0
            -123.41575,48.68168,0
            -123.41582,48.68163,0
            -123.41614,48.68144,0
            -123.41642,48.68127,0
            -123.41668,48.68112,0
            -123.41672,48.68109,0
            -123.41704,48.68092,0
            -123.41738,48.68073,0
            -123.41781,48.68051,0
            -123.41837,48.68021,0
            -123.41858,48.6801,0
            -123.41915,48.67984,0
            -123.41942,48.67972,0
            -123.41982,48.67953,0
            -123.42004,48.67943,0
            -123.42138,48.6788,0
            -123.42309,48.67801,0
            -123.42383,48.67767,0
            -123.42458,48.6773,0
            -123.42515,48.67704,0
            -123.42546,48.67689,0
            -123.4257,48.6768,0
            -123.4258,48.67677,0
            -123.4259,48.67673,0
            -123.42594,48.67672,0
            -123.42601,48.6767,0
            -123.42611,48.67667,0
            -123.4262,48.67665,0
            -123.42625,48.67664,0
            -123.4264,48.67663,0
            -123.42646,48.67663,0
            -123.42661,48.67664,0
            -123.42673,48.67665,0
            -123.42684,48.67666,0
            -123.42737,48.67672,0
            -123.42769,48.67675,0
            -123.4281,48.6768,0
            -123.42827,48.6768,0
            -123.42859,48.67685,0
            -123.42873,48.67686,0
            -123.42873,48.67673,0
            -123.42873,48.67665,0
            -123.42869,48.67655,0
            -123.42866,48.67646,0
            -123.42859,48.6763,0
            -123.42856,48.67624,0
            -123.42848,48.67615,0
            -123.42835,48.676,0
            -123.42819,48.67587,0
            -123.42804,48.67576,0
            -123.4279,48.67568,0
            -123.42776,48.67559,0
            -123.42773,48.67557,0
            -123.42756,48.67545,0
            -123.42738,48.67537,0
            -123.42725,48.67529,0
            -123.42697,48.67512,0
            -123.42694,48.6751,0
            -123.42686,48.67505,0
            -123.42672,48.67498,0
            -123.42661,48.67494,0
            -123.42648,48.6749,0
            -123.42634,48.67489,0
            -123.42623,48.67489,0
            -123.42611,48.6749,0
            -123.426,48.67493,0
            -123.42597,48.67494,0
            -123.42585,48.67499,0
            -123.42565,48.67513,0
            -123.42564,48.67515,0
            -123.42548,48.6753,0
            -123.42535,48.67544,0
            -123.42527,48.67554,0
            -123.4256,48.67568,0
            -123.42582,48.67579,0
            -123.42597,48.67586,0
            -123.42608,48.67594,0
            -123.42615,48.676,0
            -123.42621,48.67606,0
            -123.42623,48.67611,0
            -123.42623,48.67616,0
            -123.42622,48.6762,0
            -123.42621,48.67624,0
            -123.42618,48.67628,0
            -123.42613,48.67633,0
            -123.42607,48.67638,0
            -123.42602,48.67643,0
            -123.42592,48.67649,0
            -123.42572,48.6766,0
            -123.42542,48.67678,0
            -123.42482,48.6771,0
            -123.42184,48.67847,0
            -123.42129,48.67874,0
            -123.41931,48.67966,0
            -123.41863,48.67998,0
            -123.4186,48.67999,0
            -123.4183,48.68014,0
            -123.41801,48.68024,0
            -123.41752,48.68049,0
            -123.41703,48.68076,0
            -123.41678,48.6809,0
            -123.41662,48.68099,0
            -123.4164,48.68112,0
            -123.41559,48.68159,0
            -123.41493,48.682,0
            -123.41487,48.68204,0
            -123.41455,48.68226,0
            -123.41413,48.68255,0
            -123.4138,48.68277,0
            -123.41379,48.68277,0
            -123.41349,48.68297,0
            -123.41325,48.68308,0
            -123.41278,48.68342,0
            -123.41269,48.68348,0
            -123.41214,48.68384,0
            -123.41174,48.68403,0
            -123.41149,48.68416,0
            -123.41138,48.68423,0
            -123.4111,48.68437,0
            -123.41089,48.68449,0
            -123.41084,48.68452,0
            -123.4106,48.68469,0
            -123.41044,48.68482,0
            -123.41033,48.68496,0
            -123.41027,48.68506,0
            -123.41022,48.68513,0
            -123.41018,48.68523,0
          </coordinates>
        </LineString>
      </Placemark>
      <Placemark>
        <name>Lyall Harbour, Capital, BC</name>
        <styleUrl>#icon-ci-2-nodesc</styleUrl>
        <Point>
          <coordinates>
            -123.2022502,48.7989082,0
          </coordinates>
        </Point>
      </Placemark>
      <Placemark>
        <name>Swartz Bay (Victoria) Terminal, Patricia Bay Highway, Sidney, BC</name>
        <styleUrl>#icon-ci-3-nodesc</styleUrl>
        <Point>
          <coordinates>
            -123.410181,48.6852289,0
          </coordinates>
        </Point>
      </Placemark>
    </Folder>
  </Document>
</kml>
